BEIDOU-2 IGSO-1 (C06)   
1 36828U 10036A   23267.34756816 -.00000149  00000+0  00000+0 0  9990
2 36828  54.2344 171.9919 0036687 187.6959 233.7826  1.00247389 48213
BEIDOU-2 G4 (C04)       
1 37210U 10057A   23267.86784914 -.00000120  00000+0  00000+0 0  9995
2 37210   1.2204  61.7528 0006571 155.2000 258.8752  1.00272502 47305
BEIDOU-2 IGSO-2 (C07)   
1 37256U 10068A   23267.30083453 -.00000160  00000+0  00000+0 0  9990
2 37256  49.3745 284.0638 0032265 213.7711  81.7671  1.00277085 46794
BEIDOU-2 IGSO-3 (C08)   
1 37384U 11013A   23267.82341088 -.00000158  00000+0  00000+0 0  9998
2 37384  60.9697  49.6980 0028467 175.5489 182.8231  1.00276020 45660
BEIDOU-2 IGSO-4 (C09)   
1 37763U 11038A   23267.21529294 -.00000097  00000+0  00000+0 0  9998
2 37763  54.5080 174.5372 0111909 227.8226 133.3836  1.00269715 44656
BEIDOU-2 IGSO-5 (C10)   
1 37948U 11073A   23267.40640448 -.00000111  00000+0  00000+0 0  9995
2 37948  49.4999 283.7314 0095087 220.9048 100.3536  1.00267575 43131
BEIDOU-2 G5 (C05)       
1 38091U 12008A   23267.88521649  .00000049  00000+0  00000+0 0  9996
2 38091   1.7567  68.7180 0004570 173.1072 139.0964  1.00267148 42373
BEIDOU-2 M3 (C11)       
1 38250U 12018A   23267.06577761 -.00000070  00000+0  00000+0 0  9995
2 38250  56.5002 338.2209 0024186 256.3596 103.4295  1.86231023 77714
BEIDOU-2 M4 (C12)       
1 38251U 12018B   23265.92322647 -.00000069  00000+0  00000+0 0  9998
2 38251  56.4111 337.5506 0015022 256.3202 103.5715  1.86231753 77358
BEIDOU-2 M6 (C14)       
1 38775U 12050B   23265.09613275  .00000036  00000+0  00000+0 0  9996
2 38775  55.7046  96.1716 0011155 340.2299  19.7930  1.86231173 74700
BEIDOU-2 G6 (C02)       
1 38953U 12059A   23267.86299537 -.00000184  00000+0  00000+0 0  9996
2 38953   1.8759  81.8428 0007186 310.6285   5.6982  1.00272905 40053
BEIDOU-3S IGSO-1S (C31) 
1 40549U 15019A   23267.02769505 -.00000127  00000+0  00000+0 0  9991
2 40549  51.0651 307.3411 0040810 197.0780 320.4247  1.00251818 31075
BEIDOU-3S M2S (C57)     
1 40748U 15037A   23267.73664126 -.00000067  00000+0  00000+0 0  9996
2 40748  55.6501 336.0769 0012014 243.7138 116.2230  1.86232995 55568
BEIDOU-3S M1S (C58)     
1 40749U 15037B   23267.46982167 -.00000067  00000+0  00000+0 0  9995
2 40749  55.6533 336.0722 0003959 296.2032  63.8160  1.86232759 55564
BEIDOU-3S IGSO-2S (C56) 
1 40938U 15053A   23267.37031234 -.00000094  00000+0  00000+0 0  9993
2 40938  50.7804 270.5122 0047620 194.9814 127.2580  1.00278291 29358
BEIDOU-2 IGSO-6 (C13)   
1 41434U 16021A   23267.85523086 -.00000140  00000+0  00000+0 0  9997
2 41434  58.7844  48.0587 0048055 218.1510 141.8662  1.00278449 27491
BEIDOU-2 G7 (C03)       
1 41586U 16037A   23267.86855087 -.00000362  00000+0  00000+0 0  9998
2 41586   1.9178  68.6823 0007464 344.4232  13.5490  1.00275130 26793
BEIDOU-3 M1 (C19)       
1 43001U 17069A   23267.54721305  .00000052  00000+0  00000+0 0  9993
2 43001  55.8577  96.1515 0007302 298.6617  61.3353  1.86231321 40041
BEIDOU-3 M2 (C20)       
1 43002U 17069B   23267.48398800  .00000051  00000+0  00000+0 0  9996
2 43002  55.8573  96.1892 0005676 334.4031  25.6392  1.86231052 40033
BEIDOU-3 M7 (C27)       
1 43107U 18003A   23267.77167474 -.00000069  00000+0  00000+0 0  9994
2 43107  55.1064 336.7833 0003066  76.5170 283.5762  1.86232334 38794
BEIDOU-3 M8 (C28)       
1 43108U 18003B   23267.70994612 -.00000069  00000+0  00000+0 0  9990
2 43108  55.0994 336.7723 0004398 246.5253 113.4876  1.86230774 38809
BEIDOU-3 M4 (C22)       
1 43207U 18018A   23267.07827649  .00000049  00000+0  00000+0 0  9998
2 43207  55.8161  96.2654 0004338  18.4408 341.6446  1.86231261 38176
BEIDOU-3 M3 (C21)       
1 43208U 18018B   23264.99712253  .00000036  00000+0  00000+0 0  9997
2 43208  55.8139  96.3396 0005293 317.4976  42.5278  1.86231306 38135
BEIDOU-3 M9 (C29)       
1 43245U 18029A   23267.36769123 -.00000065  00000+0  00000+0 0  9995
2 43245  55.0004 334.5298 0001621 228.2584 131.7884  1.86232347 37333
BEIDOU-3 M10 (C30)      
1 43246U 18029B   23267.29769466 -.00000065  00000+0  00000+0 0  9998
2 43246  54.9973 334.5603 0002812 347.6938  12.3599  1.86232797 37313
BEIDOU-2 IGSO-7 (C16)   
1 43539U 18057A   23267.73166801 -.00000166  00000+0  00000+0 0  9999
2 43539  55.1186 171.6811 0064038 230.5985 338.2338  1.00277137 19154
BEIDOU-3 M5 (C23)       
1 43581U 18062A   23267.51790095  .00000013  00000+0  00000+0 0  9996
2 43581  54.1737 216.2248 0004685 286.3254  73.6022  1.86231757 35073
BEIDOU-3 M6 (C24)       
1 43582U 18062B   23267.38405074  .00000015  00000+0  00000+0 0  9994
2 43582  54.1735 216.2190 0005358   2.9769 357.0060  1.86229624 35070
BEIDOU-3 M12 (C26)      
1 43602U 18067A   23267.32016781  .00000014  00000+0  00000+0 0  9998
2 43602  54.2610 214.8781 0007223  14.9429 345.0591  1.86231410 34559
BEIDOU-3 M11 (C25)      
1 43603U 18067B   23267.45399407  .00000012  00000+0  00000+0 0  9990
2 43603  54.2580 214.8392 0004257   1.4368 358.5445  1.86231389 34586
BEIDOU-3 M13 (C32)      
1 43622U 18072A   23266.87600763  .00000047  00000+0  00000+0 0  9990
2 43622  55.7858  95.8112 0004100 294.8942  65.1318  1.86231447 34081
BEIDOU-3 M14 (C33)      
1 43623U 18072B   23266.20450766  .00000043  00000+0  00000+0 0  9990
2 43623  55.7872  95.8263 0002600 350.1144   9.9478  1.86231516 34066
BEIDOU-3 M16 (C35)      
1 43647U 18078A   23267.44132830 -.00000066  00000+0  00000+0 0  9994
2 43647  54.8962 334.6475 0005928   5.2451 354.8217  1.86227137 33589
BEIDOU-3 M15 (C34)      
1 43648U 18078B   23267.57140442 -.00000066  00000+0  00000+0 0  9997
2 43648  54.8917 334.6469 0002736  14.2517 345.8168  1.86232135 33613
BEIDOU-3 G1 (C59)       
1 43683U 18085A   23267.93382774 -.00000286  00000+0  00000+0 0  9994
2 43683   1.5573 122.9947 0002887 356.1000   0.6911  1.00271144 18063
BEIDOU-3 M17 (C36)      
1 43706U 18093A   23267.18235954  .00000018  00000+0  00000+0 0  9995
2 43706  54.2563 216.1550 0009818 282.7503  77.1208  1.86231846 32953
BEIDOU-3 M18 (C37)      
1 43707U 18093B   23267.58550014  .00000012  00000+0  00000+0 0  9991
2 43707  54.2570 216.1330 0008235 309.4808  50.4251  1.86229670 32971
BEIDOU-3 IGSO-1 (C38)   
1 44204U 19023A   23267.78832716 -.00000194  00000+0  00000+0 0  9994
2 44204  57.2507  48.0295 0024080 194.9936 164.1058  1.00275877 16341
BEIDOU-2 G8 (C01)       
1 44231U 19027A   23267.86471632 -.00000255  00000+0  00000+0 0  9991
2 44231   2.0060  81.0348 0006516 127.0298 251.0541  1.00276931 16098
BEIDOU-3 IGSO-2 (C39)   
1 44337U 19035A   23267.63382932 -.00000165  00000+0  00000+0 0  9996
2 44337  55.1521 167.6143 0032983 195.9786 347.3819  1.00268030 15674
BEIDOU-3 M24 (C46)      
1 44542U 19061A   23267.12010728  .00000019  00000+0  00000+0 0  9995
2 44542  54.4836 216.3907 0008482 343.9287  16.0253  1.86231411 27224
BEIDOU-3 M23 (C45)      
1 44543U 19061B   23267.52423623  .00000013  00000+0  00000+0 0  9996
2 44543  54.4820 216.3465 0005812 329.4441 213.3774  1.86231681 27232
BEIDOU-3 IGSO-3 (C40)   
1 44709U 19073A   23266.47056849 -.00000140  00000+0  00000+0 0  9990
2 44709  56.5026 291.5493 0035235 190.3762 169.6239  1.00276343 14455
BEIDOU-3 M22 (C44)      
1 44793U 19078A   23267.50246258 -.00000066  00000+0  00000+0 0  9995
2 44793  54.7446 334.6101 0004752  13.7583 346.3152  1.86232091 26095
BEIDOU-3 M21 (C43)      
1 44794U 19078B   23264.94823783 -.00000067  00000+0  00000+0 0  9996
2 44794  54.7199 334.6803 0002768   1.0734 358.9879  1.86232574 26049
BEIDOU-3 M19 (C41)      
1 44864U 19090A   23267.37424438  .00000050  00000+0  00000+0 0  9993
2 44864  55.7205  95.9808 0015280 274.0798 106.2595  1.86231555 25678
BEIDOU-3 M20 (C42)      
1 44865U 19090B   23262.91678747  .00000028  00000+0  00000+0 0  9998
2 44865  55.7185  96.1630 0013066 289.9285  71.6816  1.86231769 25575
BEIDOU-3 G2 (C60)       
1 45344U 20017A   23267.86299537 -.00000148  00000+0  00000+0 0  9991
2 45344   2.0613  17.2201 0003295 163.7717 213.1513  1.00270274 13270
BEIDOU-3 G3 (C61)       
1 45807U 20040A   23267.86837726 -.00000361  00000+0  00000+0 0  9996
2 45807   0.6011 348.0314 0005995 324.8558 113.6007  1.00264317 12083
BEIDOU-3 G4             
1 56564U 23066A   23267.86784914 -.00000122  00000+0  00000+0 0  9994
2 56564   2.7959 288.7194 0006759 216.4036 330.7796  1.00271717  1404
